COMMENT,ORIGINATOR,NORAD_CAT_ID,OBJECT_NAME,OBJECT_TYPE,CLASSIFICATION_TYPE,INTLDES,EPOCH,EPOCH_MICROSECONDS,MEAN_MOTION,ECCENTRICITY,INCLINATION,RA_OF_ASC_NODE,ARG_OF_PERICENTER,MEAN_ANOMALY,EPHEMERIS_TYPE,ELEMENT_SET_NO,REV_AT_EPOCH,BSTAR,MEAN_MOTION_DOT,MEAN_MOTION_DDOT,FILE,TLE_LINE0,TLE_LINE1,TLE_LINE2,OBJECT_ID,OBJECT_NUMBER,SEMIMAJOR_AXIS,PERIOD,APOGEE,PERIGEE,DECAYED,date
GENERATED VIA SPACETRACK.ORG API,18 SPCS,48904,SPACEBEE-111,PAYLOAD,U,21059AB,2023/1/26 14:30,903040,15.23143988,0.0009685,97.5798,162.1391,42.7744,317.4244,0,999,8783,0.0012402,0.00029341,0,3761951,0 SPACEBEE-111,1 48904U 21059AB  23026.60440860  .00029341  00000-0  12402-2 0  9993,2 48904  97.5798 162.1391 0009685  42.7744 317.4244 15.23143988 87836,2021-059AB,48904,6874.501,94.541,503.024,489.708,0,2023/2/16
GENERATED VIA SPACETRACK.ORG API,18 SPCS,48904,SPACEBEE-111,PAYLOAD,U,21059AB,2023/1/26 20:48,200448,15.23157207,0.0009675,97.5798,162.4045,41.9421,318.2555,0,999,8787,0.0011449,0.00027083,0,3762199,0 SPACEBEE-111,1 48904U 21059AB  23026.86718982  .00027083  00000-0  11449-2 0  9995,2 48904  97.5798 162.4045 0009675  41.9421 318.2555 15.23157207 87874,2021-059AB,48904,6874.462,94.54,502.978,489.676,0,2023/2/17
GENERATED VIA SPACETRACK.ORG API,18 SPCS,48904,SPACEBEE-111,PAYLOAD,U,21059AB,2023/1/27 7:50,225408,15.2317867,0.00097,97.5797,162.8689,40.2314,319.9638,0,999,8794,0.0010167,0.00024048,0,3762956,0 SPACEBEE-111,1 48904U 21059AB  23027.32705122  .00024048  00000-0  10167-2 0  9993,2 48904  97.5797 162.8689 0009700  40.2314 319.9638 15.23178670 87948,2021-059AB,48904,6874.397,94.539,502.93,489.594,0,2023/2/18
GENERATED VIA SPACETRACK.ORG API,18 SPCS,48904,SPACEBEE-111,PAYLOAD,U,21059AB,2023/1/27 20:27,523360,15.23205723,0.0009659,97.5797,163.3994,38.7101,321.4825,0,999,8802,0.0010233,0.00024224,0,3763218,0 SPACEBEE-111,1 48904U 21059AB  23027.85259865  .00024224  00000-0  10233-2 0  9999,2 48904  97.5797 163.3994 0009659  38.7101 321.4825 15.23205723 88028,2021-059AB,48904,6874.316,94.537,502.82,489.541,0,2023/2/19
GENERATED VIA SPACETRACK.ORG API,18 SPCS,48904,SPACEBEE-111,PAYLOAD,U,21059AB,2023/1/28 2:46,883328,15.23218423,0.0009698,97.5796,163.6649,37.7476,322.4439,0,999,8806,0.0010727,0.00025411,0,3763367,0 SPACEBEE-111,1 48904U 21059AB  23028.11536902  .00025411  00000-0  10727-2 0  9996,2 48904  97.5796 163.6649 0009698  37.7476 322.4439 15.23218423 88061,2021-059AB,48904,6874.277,94.537,502.809,489.476,0,2023/2/20
GENERATED VIA SPACETRACK.ORG API,18 SPCS,48904,SPACEBEE-111,PAYLOAD,U,21059AB,2023/1/28 7:29,276512,15.23227885,0.0009719,97.5796,163.8639,37.1145,323.0761,0,999,8809,0.0010109,0.00023945,0,3763924,0 SPACEBEE-111,1 48904U 21059AB  23028.31244533  .00023945  00000-0  10109-2 0  9998,2 48904  97.5796 163.8639 0009719  37.1145 323.0761 15.23227885 88093,2021-059AB,48904,6874.249,94.536,502.795,489.433,0,2023/2/21
GENERATED VIA SPACETRACK.ORG API,18 SPCS,48904,SPACEBEE-111,PAYLOAD,U,21059AB,2023/1/28 21:41,910880,15.23251692,0.0009687,97.5797,164.4606,35.5436,324.6444,0,999,8818,0.00082119,0.0001944,0,3764201,0 SPACEBEE-111,1 48904U 21059AB  23028.90366795  .00019440  00000-0  82119-3 0  9994,2 48904  97.5797 164.4606 0009687  35.5436 324.6444 15.23251692 88182,2021-059AB,48904,6874.177,94.535,502.701,489.383,0,2023/2/22
GENERATED VIA SPACETRACK.ORG API,18 SPCS,48904,SPACEBEE-111,PAYLOAD,U,21059AB,2023/1/29 8:43,450976,15.23272243,0.0009716,97.5795,164.9251,33.9914,326.1943,0,999,8825,0.00085028,0.00020145,0,3764636,0 SPACEBEE-111,1 48904U 21059AB  23029.36350059  .00020145  00000-0  85028-3 0  9997,2 48904  97.5795 164.9251 0009716  33.9914 326.1943 15.23272243 88251,2021-059AB,48904,6874.115,94.533,502.659,489.302,0,2023/2/23
GENERATED VIA SPACETRACK.ORG API,18 SPCS,48904,SPACEBEE-111,PAYLOAD,U,21059AB,2023/1/29 21:20,88672,15.23291073,0.0009635,97.5795,165.4556,32.3179,327.8646,0,999,8833,0.00072081,0.00017069,0,3765015,0 SPACEBEE-111,1 48904U 21059AB  23029.88901723  .00017069  00000-0  72081-3 0  9990,2 48904  97.5795 165.4556 0009635  32.3179 327.8646 15.23291073 88330,2021-059AB,48904,6874.059,94.532,502.547,489.301,0,2023/2/24
GENERATED VIA SPACETRACK.ORG API,18 SPCS,48904,SPACEBEE-111,PAYLOAD,U,21059AB,2023/1/30 8:22,661088,15.2330788,0.0009664,97.5793,165.9201,30.4183,329.7612,0,999,8840,0.00073386,0.00017389,0,3765576,0 SPACEBEE-111,1 48904U 21059AB  23030.34883867  .00017389  00000-0  73386-3 0  9995,2 48904  97.5793 165.9201 0009664  30.4183 329.7612 15.23307880 88402,2021-059AB,48904,6874.008,94.531,502.516,489.23,0,2023/2/25
GENERATED VIA SPACETRACK.ORG API,18 SPCS,48904,SPACEBEE-111,PAYLOAD,U,21059AB,2023/1/30 14:40,513376,15.23316275,0.0009609,97.5793,166.1852,29.5006,330.6771,0,999,8844,0.00069886,0.00016558,0,3765692,0 SPACEBEE-111,1 48904U 21059AB  23030.61159159  .00016558  00000-0  69886-3 0  9992,2 48904  97.5793 166.1852 0009609  29.5006 330.6771 15.23316275 88448,2021-059AB,48904,6873.983,94.531,502.453,489.243,0,2023/2/26
GENERATED VIA SPACETRACK.ORG API,18 SPCS,48904,SPACEBEE-111,PAYLOAD,U,21059AB,2023/1/30 14:40,513376,15.23316275,0.0009609,97.5793,166.1852,29.5006,330.6771,0,999,8844,0.00069886,0.00016558,0,3765849,0 SPACEBEE-111,1 48904U 21059AB  23030.61159159  .00016558  00000-0  69886-3 0  9992,2 48904  97.5793 166.1852 0009609  29.5006 330.6771 15.23316275 88448,2021-059AB,48904,6873.983,94.531,502.453,489.243,0,2023/2/27
GENERATED VIA SPACETRACK.ORG API,18 SPCS,48904,SPACEBEE-111,PAYLOAD,U,21059AB,2023/1/31 14:19,201472,15.23356373,0.0009614,97.5791,167.1802,25.8562,334.3153,0,999,8859,0.00087685,0.0002083,0,3766475,0 SPACEBEE-111,1 48904U 21059AB  23031.59690048  .00020830  00000-0  87685-3 0  9992,2 48904  97.5791 167.1802 0009614  25.8562 334.3153 15.23356373 88598,2021-059AB,48904,6873.862,94.528,502.336,489.119,0,2023/2/28
GENERATED VIA SPACETRACK.ORG API,18 SPCS,48904,SPACEBEE-111,PAYLOAD,U,21059AB,2023/1/31 23:47,854112,15.23372199,0.0009599,97.5792,167.5782,24.5922,335.577,0,999,8865,0.00087596,0.00020819,0,3766918,0 SPACEBEE-111,1 48904U 21059AB  23031.99101683  .00020819  00000-0  87596-3 0  9996,2 48904  97.5792 167.5782 0009599  24.5922 335.5770 15.23372199 88657,2021-059AB,48904,6873.815,94.527,502.278,489.082,0,2023/3/1
GENERATED VIA SPACETRACK.ORG API,18 SPCS,48904,SPACEBEE-111,PAYLOAD,U,21059AB,2023/2/1 7:39,908032,15.23386938,0.000957,97.5794,167.91,23.4722,336.6949,0,999,8870,0.00088709,0.00021094,0,3767525,0 SPACEBEE-111,1 48904U 21059AB  23032.31944338  .00021094  00000-0  88709-3 0  9998,2 48904  97.5794 167.9100 0009570  23.4722 336.6949 15.23386938 88704,2021-059AB,48904,6873.77,94.526,502.214,489.057,0,2023/3/2
GENERATED VIA SPACETRACK.ORG API,18 SPCS,48904,SPACEBEE-111,PAYLOAD,U,21059AB,2023/2/2 2:35,398912,15.23418844,0.0009546,97.5797,168.7062,20.9907,339.1719,0,999,8882,0.0008196,0.00019498,0,3767958,0 SPACEBEE-111,1 48904U 21059AB  23033.10765508  .00019498  00000-0  81960-3 0  9993,2 48904  97.5797 168.7062 0009546  20.9907 339.1719 15.23418844 88821,2021-059AB,48904,6873.674,94.524,502.101,488.978,0,2023/3/3
GENERATED VIA SPACETRACK.ORG API,18 SPCS,48904,SPACEBEE-111,PAYLOAD,U,21059AB,2023/2/2 8:53,518016,15.23436127,0.0009571,97.5797,168.9718,20.2352,339.9262,0,999,8886,0.0010419,0.00024836,0,3768366,0 SPACEBEE-111,1 48904U 21059AB  23033.37038794  .00024836  00000-0  10419-2 0  9994,2 48904  97.5797 168.9718 0009571  20.2352 339.9262 15.23436127 88865,2021-059AB,48904,6873.622,94.523,502.066,488.909,0,2023/3/4
GENERATED VIA SPACETRACK.ORG API,18 SPCS,48904,SPACEBEE-111,PAYLOAD,U,21059AB,2023/2/2 8:53,518016,15.23436127,0.0009571,97.5797,168.9718,20.2352,339.9262,0,999,8886,0.0010419,0.00024836,0,3768741,0 SPACEBEE-111,1 48904U 21059AB  23033.37038794  .00024836  00000-0  10419-2 0  9994,2 48904  97.5797 168.9718 0009571  20.2352 339.9262 15.23436127 88865,2021-059AB,48904,6873.622,94.523,502.066,488.909,0,2023/3/5
GENERATED VIA SPACETRACK.ORG API,18 SPCS,48904,SPACEBEE-111,PAYLOAD,U,21059AB,2023/2/3 8:32,550720,15.23475005,0.0009504,97.5799,169.967,16.9138,343.2413,0,999,8901,0.00085711,0.0002043,0,3770064,0 SPACEBEE-111,1 48904U 21059AB  23034.35561980  .00020430  00000-0  85711-3 0  9995,2 48904  97.5799 169.9670 0009504  16.9138 343.2413 15.23475005 89017,2021-059AB,48904,6873.506,94.521,501.903,488.838,0,2023/3/6
GENERATED VIA SPACETRACK.ORG API,18 SPCS,48904,SPACEBEE-111,PAYLOAD,U,21059AB,2023/2/3 8:32,550720,15.23475005,0.0009504,97.5799,169.967,16.9138,343.2413,0,999,8901,0.00085711,0.0002043,0,3770323,0 SPACEBEE-111,1 48904U 21059AB  23034.35561980  .00020430  00000-0  85711-3 0  9995,2 48904  97.5799 169.9670 0009504  16.9138 343.2413 15.23475005 89017,2021-059AB,48904,6873.506,94.521,501.903,488.838,0,2023/3/7
GENERATED VIA SPACETRACK.ORG API,18 SPCS,48904,SPACEBEE-111,PAYLOAD,U,21059AB,2023/2/3 14:50,887040,15.23485782,0.0009457,97.5799,170.2322,15.9777,344.1756,0,999,8905,0.00084669,0.00020186,0,3770748,0 SPACEBEE-111,1 48904U 21059AB  23034.61834360  .00020186  00000-0  84669-3 0  9998,2 48904  97.5799 170.2322 0009457  15.9777 344.1756 15.23485782 89058,2021-059AB,48904,6873.473,94.52,501.838,488.838,0,2023/3/8
GENERATED VIA SPACETRACK.ORG API,18 SPCS,48904,SPACEBEE-111,PAYLOAD,U,21059AB,2023/2/4 8:10,159904,15.23521429,0.0009462,97.5801,170.9623,13.1428,347.0053,0,999,8916,0.0010101,0.00024134,0,3771952,0 SPACEBEE-111,1 48904U 21059AB  23035.34082361  .00024134  00000-0  10101-2 0  9991,2 48904  97.5801 170.9623 0009462  13.1428 347.0053 15.23521429 89165,2021-059AB,48904,6873.366,94.518,501.734,488.727,0,2023/3/9
GENERATED VIA SPACETRACK.ORG API,18 SPCS,48904,SPACEBEE-111,PAYLOAD,U,21059AB,2023/2/4 20:47,292896,15.23543969,0.0009383,97.5804,171.4927,11.3263,348.8183,0,999,8924,0.0008462,0.00020209,0,3772180,0 SPACEBEE-111,1 48904U 21059AB  23035.86625339  .00020209  00000-0  84620-3 0  9993,2 48904  97.5804 171.4927 0009383  11.3263 348.8183 15.23543969 89245,2021-059AB,48904,6873.298,94.516,501.612,488.714,0,2023/3/10
